IRIDIUM 112             
1 41925U 17003J   23267.07164695  .00000379  00000+0  12821-3 0  9995
2 41925  86.3996 145.0592 0002166  91.0249 269.1195 14.34218292350388
IRIDIUM 111             
1 41926U 17003K   23267.12873273  .00000370  00000+0  12498-3 0  9992
2 41926  86.3998 145.0835 0002304  78.1987 281.9467 14.34217807350419
IRIDIUM 113             
1 42803U 17039A   23266.75984872  .00000036  00000+0  56247-5 0  9993
2 42803  86.4025  18.9613 0002253  92.0513 268.0941 14.34218195328229
IRIDIUM 123             
1 42804U 17039B   23266.66179172  .00000041  00000+0  74551-5 0  9997
2 42804  86.3963  50.4999 0002503  94.0048 266.1434 14.34217547326977
IRIDIUM 120             
1 42805U 17039C   23267.38142443  .00000590  00000+0  20362-3 0  9997
2 42805  86.4017  18.6138 0002067  90.4288 269.7145 14.34220813328308
IRIDIUM 115             
1 42806U 17039D   23267.35181824  .00000722  00000+0  20838-3 0  9996
2 42806  86.4553  18.6133 0002358  87.0307 273.1163 14.43326745330488
IRIDIUM 118             
1 42807U 17039E   23266.48420288  .00000481  00000+0  16483-3 0  9993
2 42807  86.3964  50.5768 0002088  92.0375 268.1060 14.34218038326945
IRIDIUM 117             
1 42808U 17039F   23266.50322940  .00000639  00000+0  22104-3 0  9995
2 42808  86.3962  50.5358 0002150  90.6899 269.4543 14.34218463326979
